IRIDIUM 39              
1 25042U 97069D   25361.44262249  .00000880  00000+0  22370-3 0  9996
2 25042  86.3930 128.3265 0018418  27.2342 332.9824 14.49527124476954
IRIDIUM 38              
1 25043U 97069E   25361.51784694  .00000598  00000+0  19001-3 0  9991
2 25043  86.3981 151.8939 0002762 136.5842 223.5574 14.38328440473743
IRIDIUM 42              
1 25077U 97077A   25361.48369075  .00000539  00000+0  17698-3 0  9990
2 25077  86.3985 158.3141 0001928 114.7867 245.3531 14.36545097468947
IRIDIUM 44              
1 25078U 97077B   25361.47173890  .00000499  00000+0  15101-3 0  9990
2 25078  86.3979 139.7389 0003888 102.1163 258.0472 14.40444358471521
IRIDIUM 45              
1 25104U 97082A   25361.37475140  .00038308  00000+0  10641-2 0  9991
2 25104  86.3547 313.4617 0094369 325.3381  34.1740 15.32257838481510
IRIDIUM 24              
1 25105U 97082B   25361.40185426  .00000555  00000+0  16185-3 0  9994
2 25105  86.3909 358.3297 0012306 149.7518 210.4395 14.42341421471062
IRIDIUM 51              
1 25262U 98018A   25361.30212679  .00114725  00000+0  10919-2 0  9991
2 25262  86.3725 318.7506 0046174 210.3903 149.4687 15.65067859476929
IRIDIUM 57              
1 25273U 98019B   25361.26540971  .00000401  00000+0  13118-3 0  9998
2 25273  86.3946  64.2970 0002239  97.5218 262.6233 14.36062096452498
